QZS-1R                  
1 49336U 21096A   23353.62312299 -.00000251  00000+0  00000+0 0  9990
2 49336  35.5753  93.2910 0754830 271.1903  81.4990  1.00255520  7883
